{
  "type": "FeatureCollection",
  "features": [
    {
      "type": "Feature",
      "properties": {
        "norad_id": 31990,
        "name": "FENGYUN 1C DEB",
        "group": "fengyun-1c-debris",
        "lat": 38.014210875567606,
        "lon": -156.6123473218956,
        "alt_km": 865.8551820337798,
        "timestamp": "2025-12-20T03:42:47.678151+00:00",
        "meta_object_name": "FENGYUN 1C DEB",
        "meta_object_id": "1999-025CPT",
        "meta_epoch": "2025-12-19T13:36:33.444000",
        "meta_mean_motion": 13.57205754,
        "meta_eccentricity": 0.026039,
        "meta_inclination": 99.1599,
        "meta_ra_of_asc_node": 15.5944,
        "meta_arg_of_pericenter": 167.0928,
        "meta_mean_anomaly": 345.6406,
        "meta_ephemeris_type": 0,
        "meta_classification_type": "U",
        "meta_norad_cat_id": 31990,
        "meta_element_set_no": 999,
        "meta_rev_at_epoch": 62864,
        "meta_bstar": 0.00023615,
        "meta_mean_motion_dot": 1.71e-06,
        "meta_mean_motion_ddot": 0,
        "tle_line1": "1 31990U 99025CPT 25353.56705375  .00000171  00000+0  23615-3 0  9991",
        "tle_line2": "2 31990  99.1599  15.5944 0260390 167.0928 345.6406 13.57205754628640"
      },
      "geometry": {
        "type": "Point",
        "coordinates": [
          -156.6123473218956,
          38.014210875567606
        ]
      }
    },
    {
      "type": "Feature",
      "properties": {
        "norad_id": 31991,
        "name": "FENGYUN 1C DEB",
        "group": "fengyun-1c-debris",
        "lat": -79.5039848249277,
        "lon": -84.83577081750252,
        "alt_km": 1140.207842894607,
        "timestamp": "2025-12-20T03:42:47.678161+00:00",
        "meta_object_name": "FENGYUN 1C DEB",
        "meta_object_id": "1999-025CPU",
        "meta_epoch": "2025-12-10T18:22:22.024416",
        "meta_mean_motion": 13.6127752,
        "meta_eccentricity": 0.02446272,
        "meta_inclination": 100.4864,
        "meta_ra_of_asc_node": 173.6062,
        "meta_arg_of_pericenter": 58.2006,
        "meta_mean_anomaly": 304.2706,
        "meta_ephemeris_type": 0,
        "meta_classification_type": "U",
        "meta_norad_cat_id": 31991,
        "meta_element_set_no": 999,
        "meta_rev_at_epoch": 62060,
        "meta_bstar": 0.00020963887,
        "meta_mean_motion_dot": 1.45e-06,
        "meta_mean_motion_ddot": 0,
        "tle_line1": "1 31991U 99025CPU 25344.76553269  .00000145  00000+0  20964-3 0  9992",
        "tle_line2": "2 31991 100.4864 173.6062 0244627  58.2006 304.2706 13.61277520620609"
      },
      "geometry": {
        "type": "Point",
        "coordinates": [
          -84.83577081750252,
          -79.5039848249277
        ]
      }
    },
    {
      "type": "Feature",
      "properties": {
        "norad_id": 31992,
        "name": "FENGYUN 1C DEB",
        "group": "fengyun-1c-debris",
        "lat": -32.2056301789987,
        "lon": 127.32463950378309,
        "alt_km": 1558.7143083786787,
        "timestamp": "2025-12-20T03:42:47.678172+00:00",
        "meta_object_name": "FENGYUN 1C DEB",
        "meta_object_id": "1999-025CPV",
        "meta_epoch": "2025-12-12T04:04:23.293056",
        "meta_mean_motion": 13.22988689,
        "meta_eccentricity": 0.05424019,
        "meta_inclination": 99.1658,
        "meta_ra_of_asc_node": 306.1111,
        "meta_arg_of_pericenter": 30.97,
        "meta_mean_anomaly": 332.2249,
        "meta_ephemeris_type": 0,
        "meta_classification_type": "U",
        "meta_norad_cat_id": 31992,
        "meta_element_set_no": 999,
        "meta_rev_at_epoch": 53867,
        "meta_bstar": 0.001808457,
        "meta_mean_motion_dot": 1.63e-05,
        "meta_mean_motion_ddot": 0,
        "tle_line1": "1 31992U 99025CPV 25346.16971404  .00001630  00000+0  18085-2 0  9994",
        "tle_line2": "2 31992  99.1658 306.1111 0542401  30.9700 332.2249 13.22988689538672"
      },
      "geometry": {
        "type": "Point",
        "coordinates": [
          127.32463950378309,
          -32.2056301789987
        ]
      }
    },
    {
      "type": "Feature",
      "properties": {
        "norad_id": 31993,
        "name": "FENGYUN 1C DEB",
        "group": "fengyun-1c-debris",
        "lat": 4.77474069281864,
        "lon": -35.13854879075549,
        "alt_km": 1267.0775291048249,
        "timestamp": "2025-12-20T03:42:47.678182+00:00",
        "meta_object_name": "FENGYUN 1C DEB",
        "meta_object_id": "1999-025CPW",
        "meta_epoch": "2025-12-17T15:59:38.723424",
        "meta_mean_motion": 13.27465244,
        "meta_eccentricity": 0.04221919,
        "meta_inclination": 99.2401,
        "meta_ra_of_asc_node": 323.4136,
        "meta_arg_of_pericenter": 123.2149,
        "meta_mean_anomaly": 241.0192,
        "meta_ephemeris_type": 0,
        "meta_classification_type": "U",
        "meta_norad_cat_id": 31993,
        "meta_element_set_no": 999,
        "meta_rev_at_epoch": 89008,
        "meta_bstar": 0.0017179933,
        "meta_mean_motion_dot": 1.22e-05,
        "meta_mean_motion_ddot": 0,
        "tle_line1": "1 31993U 99025CPW 25351.66642041  .00001220  00000+0  17180-2 0  9998",
        "tle_line2": "2 31993  99.2401 323.4136 0422191 123.2149 241.0192 13.27465244890087"
      },
      "geometry": {
        "type": "Point",
        "coordinates": [
          -35.13854879075549,
          4.77474069281864
        ]
      }
    },
    {
      "type": "Feature",
      "properties": {
        "norad_id": 31994,
        "name": "FENGYUN 1C DEB",
        "group": "fengyun-1c-debris",
        "lat": -48.96225023012568,
        "lon": 157.8544659015325,
        "alt_km": 942.3811552156822,
        "timestamp": "2025-12-20T03:42:47.678192+00:00",
        "meta_object_name": "FENGYUN 1C DEB",
        "meta_object_id": "1999-025CPX",
        "meta_epoch": "2025-12-18T05:54:00.814464",
        "meta_mean_motion": 13.95758705,
        "meta_eccentricity": 0.01625274,
        "meta_inclination": 98.539,
        "meta_ra_of_asc_node": 346.0233,
        "meta_arg_of_pericenter": 130.8306,
        "meta_mean_anomaly": 230.708,
        "meta_ephemeris_type": 0,
        "meta_classification_type": "U",
        "meta_norad_cat_id": 31994,
        "meta_element_set_no": 999,
        "meta_rev_at_epoch": 56873,
        "meta_bstar": -7.0824309e-05,
        "meta_mean_motion_dot": -1.46e-06,
        "meta_mean_motion_ddot": 0,
        "tle_line1": "1 31994U 99025CPX 25352.24584276 -.00000146  00000+0 -70824-4 0  9993",
        "tle_line2": "2 31994  98.5390 346.0233 0162527 130.8306 230.7080 13.95758705568736"
      },
      "geometry": {
        "type": "Point",
        "coordinates": [
          157.8544659015325,
          -48.96225023012568
        ]
      }
    },
    {
      "type": "Feature",
      "properties": {
        "norad_id": 31997,
        "name": "FENGYUN 1C DEB",
        "group": "fengyun-1c-debris",
        "lat": -12.80029953206015,
        "lon": 42.59572819611497,
        "alt_km": 1030.769910150234,
        "timestamp": "2025-12-20T03:42:47.678202+00:00",
        "meta_object_name": "FENGYUN 1C DEB",
        "meta_object_id": "1999-025CQA",
        "meta_epoch": "2025-12-15T21:25:47.322912",
        "meta_mean_motion": 13.60688194,
        "meta_eccentricity": 0.02902938,
        "meta_inclination": 102.5107,
        "meta_ra_of_asc_node": 34.2632,
        "meta_arg_of_pericenter": 266.7026,
        "meta_mean_anomaly": 90.0859,
        "meta_ephemeris_type": 0,
        "meta_classification_type": "U",
        "meta_norad_cat_id": 31997,
        "meta_element_set_no": 999,
        "meta_rev_at_epoch": 61726,
        "meta_bstar": 0.0019849043,
        "meta_mean_motion_dot": 1.913e-05,
        "meta_mean_motion_ddot": 0,
        "tle_line1": "1 31997U 99025CQA 25349.89290883  .00001913  00000+0  19849-2 0  9990",
        "tle_line2": "2 31997 102.5107  34.2632 0290293 266.7026  90.0859 13.60688194617260"
      },
      "geometry": {
        "type": "Point",
        "coordinates": [
          42.59572819611497,
          -12.80029953206015
        ]
      }
    },
    {
      "type": "Feature",
      "properties": {
        "norad_id": 32086,
        "name": "FENGYUN 1C DEB",
        "group": "fengyun-1c-debris",
        "lat": 80.17352729126725,
        "lon": -21.759961912784597,
        "alt_km": 802.1415269565932,
        "timestamp": "2025-12-20T03:42:47.678212+00:00",
        "meta_object_name": "FENGYUN 1C DEB",
        "meta_object_id": "1999-025CQC",
        "meta_epoch": "2025-12-17T10:23:39.337152",
        "meta_mean_motion": 13.689162,
        "meta_eccentricity": 0.02995228,
        "meta_inclination": 99.2703,
        "meta_ra_of_asc_node": 46.1713,
        "meta_arg_of_pericenter": 123.4273,
        "meta_mean_anomaly": 239.5901,
        "meta_ephemeris_type": 0,
        "meta_classification_type": "U",
        "meta_norad_cat_id": 32086,
        "meta_element_set_no": 999,
        "meta_rev_at_epoch": 61845,
        "meta_bstar": 0.0015448489,
        "meta_mean_motion_dot": 1.784e-05,
        "meta_mean_motion_ddot": 0,
        "tle_line1": "1 32086U 99025CQC 25351.43309418  .00001784  00000+0  15448-2 0  9995",
        "tle_line2": "2 32086  99.2703  46.1713 0299522 123.4273 239.5901 13.68916200618453"
      },
      "geometry": {
        "type": "Point",
        "coordinates": [
          -21.759961912784597,
          80.17352729126725
        ]
      }
    }
  ]
}